{
  "type": "FeatureCollection",
  "features": [
    {
      "type": "Feature",
      "properties": {
        "norad_id": 36744,
        "name": "COMS 1",
        "group": "weather",
        "lat": -4.280492818768286,
        "lon": -2.960576832551379,
        "alt_km": 35785.7905707385,
        "timestamp": "2025-12-10T09:57:44.347621+00:00",
        "meta_object_name": "COMS 1",
        "meta_object_id": "2010-032A",
        "meta_epoch": "2025-12-09T14:54:38.529792",
        "meta_mean_motion": 1.00270977,
        "meta_eccentricity": 0.0001129,
        "meta_inclination": 4.3339,
        "meta_ra_of_asc_node": 78.0311,
        "meta_arg_of_pericenter": 203.6251,
        "meta_mean_anomaly": 148.7892,
        "meta_ephemeris_type": 0,
        "meta_classification_type": "U",
        "meta_norad_cat_id": 36744,
        "meta_element_set_no": 999,
        "meta_rev_at_epoch": 4918,
        "meta_bstar": 0,
        "meta_mean_motion_dot": -3.42e-06,
        "meta_mean_motion_ddot": 0,
        "tle_line1": "1 36744U 10032A   25343.62127928 -.00000342  00000+0  00000+0 0  9992",
        "tle_line2": "2 36744   4.3339  78.0311 0001129 203.6251 148.7892  1.00270977 49184"
      },
      "geometry": {
        "type": "Point",
        "coordinates": [
          -2.960576832551379,
          -4.280492818768286
        ]
      }
    },
    {
      "type": "Feature",
      "properties": {
        "norad_id": 37214,
        "name": "FENGYUN 3B",
        "group": "weather",
        "lat": 77.72963925375254,
        "lon": -22.33536663358987,
        "alt_km": 832.154721920705,
        "timestamp": "2025-12-10T09:57:44.347633+00:00",
        "meta_object_name": "FENGYUN 3B",
        "meta_object_id": "2010-059A",
        "meta_epoch": "2025-12-10T04:51:43.159968",
        "meta_mean_motion": 14.14788312,
        "meta_eccentricity": 0.0022162,
        "meta_inclination": 98.9905,
        "meta_ra_of_asc_node": 24.1618,
        "meta_arg_of_pericenter": 4.9564,
        "meta_mean_anomaly": 74.6509,
        "meta_ephemeris_type": 0,
        "meta_classification_type": "U",
        "meta_norad_cat_id": 37214,
        "meta_element_set_no": 999,
        "meta_rev_at_epoch": 78070,
        "meta_bstar": 0.00013616,
        "meta_mean_motion_dot": 2.18e-06,
        "meta_mean_motion_ddot": 0,
        "tle_line1": "1 37214U 10059A   25344.20258287  .00000218  00000+0  13616-3 0  9994",
        "tle_line2": "2 37214  98.9905  24.1618 0022162   4.9564  74.6509 14.14788312780704"
      },
      "geometry": {
        "type": "Point",
        "coordinates": [
          -22.33536663358987,
          77.72963925375254
        ]
      }
    },
    {
      "type": "Feature",
      "properties": {
        "norad_id": 37849,
        "name": "SUOMI NPP",
        "group": "weather",
        "lat": -61.54141093385185,
        "lon": 85.21655267156468,
        "alt_km": 834.8826106619172,
        "timestamp": "2025-12-10T09:57:44.347645+00:00",
        "meta_object_name": "SUOMI NPP",
        "meta_object_id": "2011-061A",
        "meta_epoch": "2025-12-10T03:44:50.236800",
        "meta_mean_motion": 14.19512976,
        "meta_eccentricity": 0.0002162,
        "meta_inclination": 98.777,
        "meta_ra_of_asc_node": 281.521,
        "meta_arg_of_pericenter": 124.7414,
        "meta_mean_anomaly": 235.3966,
        "meta_ephemeris_type": 0,
        "meta_classification_type": "U",
        "meta_norad_cat_id": 37849,
        "meta_element_set_no": 999,
        "meta_rev_at_epoch": 73162,
        "meta_bstar": 0.00010766,
        "meta_mean_motion_dot": 1.83e-06,
        "meta_mean_motion_ddot": 0,
        "tle_line1": "1 37849U 11061A   25344.15613700  .00000183  00000+0  10766-3 0  9995",
        "tle_line2": "2 37849  98.7770 281.5210 0002162 124.7414 235.3966 14.19512976731622"
      },
      "geometry": {
        "type": "Point",
        "coordinates": [
          85.21655267156468,
          -61.54141093385185
        ]
      }
    },
    {
      "type": "Feature",
      "properties": {
        "norad_id": 38552,
        "name": "METEOSAT-10 (MSG-3)",
        "group": "weather",
        "lat": 0.916191550887662,
        "lon": -130.99487144284197,
        "alt_km": 35784.33023578801,
        "timestamp": "2025-12-10T09:57:44.347657+00:00",
        "meta_object_name": "METEOSAT-10 (MSG-3)",
        "meta_object_id": "2012-035B",
        "meta_epoch": "2025-12-09T20:25:24.030912",
        "meta_mean_motion": 1.00274082,
        "meta_eccentricity": 8.52e-05,
        "meta_inclination": 4.2224,
        "meta_ra_of_asc_node": 61.7294,
        "meta_arg_of_pericenter": 241.8219,
        "meta_mean_anomaly": 81.7823,
        "meta_ephemeris_type": 0,
        "meta_classification_type": "U",
        "meta_norad_cat_id": 38552,
        "meta_element_set_no": 999,
        "meta_rev_at_epoch": 4895,
        "meta_bstar": 0,
        "meta_mean_motion_dot": -4e-08,
        "meta_mean_motion_ddot": 0,
        "tle_line1": "1 38552U 12035B   25343.85097258 -.00000004  00000+0  00000+0 0  9998",
        "tle_line2": "2 38552   4.2224  61.7294 0000852 241.8219  81.7823  1.00274082 48959"
      },
      "geometry": {
        "type": "Point",
        "coordinates": [
          -130.99487144284197,
          0.916191550887662
        ]
      }
    },
    {
      "type": "Feature",
      "properties": {
        "norad_id": 38771,
        "name": "METOP-B",
        "group": "weather",
        "lat": 76.10580269660467,
        "lon": -3.7258067669105737,
        "alt_km": 812.6802392321497,
        "timestamp": "2025-12-10T09:57:44.347669+00:00",
        "meta_object_name": "METOP-B",
        "meta_object_id": "2012-049A",
        "meta_epoch": "2025-12-10T02:50:01.527072",
        "meta_mean_motion": 14.21406806,
        "meta_eccentricity": 0.0002799,
        "meta_inclination": 98.6803,
        "meta_ra_of_asc_node": 34.1212,
        "meta_arg_of_pericenter": 149.8322,
        "meta_mean_anomaly": 210.3017,
        "meta_ephemeris_type": 0,
        "meta_classification_type": "U",
        "meta_norad_cat_id": 38771,
        "meta_element_set_no": 999,
        "meta_rev_at_epoch": 68640,
        "meta_bstar": 0.00011481,
        "meta_mean_motion_dot": 2.07e-06,
        "meta_mean_motion_ddot": 0,
        "tle_line1": "1 38771U 12049A   25344.11807323  .00000207  00000+0  11481-3 0  9991",
        "tle_line2": "2 38771  98.6803  34.1212 0002799 149.8322 210.3017 14.21406806686401"
      },
      "geometry": {
        "type": "Point",
        "coordinates": [
          -3.7258067669105737,
          76.10580269660467
        ]
      }
    },
    {
      "type": "Feature",
      "properties": {
        "norad_id": 39216,
        "name": "INSAT-3D",
        "group": "weather",
        "lat": -1.4316848655315244,
        "lon": -1.612508215099035,
        "alt_km": 35788.92997668704,
        "timestamp": "2025-12-10T09:57:44.347682+00:00",
        "meta_object_name": "INSAT-3D",
        "meta_object_id": "2013-038B",
        "meta_epoch": "2025-12-09T21:02:13.005024",
        "meta_mean_motion": 1.0027109,
        "meta_eccentricity": 0.0001623,
        "meta_inclination": 1.4377,
        "meta_ra_of_asc_node": 85.0184,
        "meta_arg_of_pericenter": 162.9185,
        "meta_mean_anomaly": 276.0233,
        "meta_ephemeris_type": 0,
        "meta_classification_type": "U",
        "meta_norad_cat_id": 39216,
        "meta_element_set_no": 999,
        "meta_rev_at_epoch": 4518,
        "meta_bstar": 0,
        "meta_mean_motion_dot": -3.36e-06,
        "meta_mean_motion_ddot": 0,
        "tle_line1": "1 39216U 13038B   25343.87653941 -.00000336  00000+0  00000+0 0  9997",
        "tle_line2": "2 39216   1.4377  85.0184 0001623 162.9185 276.0233  1.00271090 45186"
      },
      "geometry": {
        "type": "Point",
        "coordinates": [
          -1.612508215099035,
          -1.4316848655315244
        ]
      }
    },
    {
      "type": "Feature",
      "properties": {
        "norad_id": 39260,
        "name": "FENGYUN 3C",
        "group": "weather",
        "lat": 13.707875183257292,
        "lon": -39.87650697100249,
        "alt_km": 851.0023117221808,
        "timestamp": "2025-12-10T09:57:44.347694+00:00",
        "meta_object_name": "FENGYUN 3C",
        "meta_object_id": "2013-052A",
        "meta_epoch": "2025-12-10T04:48:29.268000",
        "meta_mean_motion": 14.15695025,
        "meta_eccentricity": 0.0014138,
        "meta_inclination": 98.476,
        "meta_ra_of_asc_node": 322.0037,
        "meta_arg_of_pericenter": 203.5602,
        "meta_mean_anomaly": 156.4926,
        "meta_ephemeris_type": 0,
        "meta_classification_type": "U",
        "meta_norad_cat_id": 39260,
        "meta_element_set_no": 999,
        "meta_rev_at_epoch": 63182,
        "meta_bstar": 0.00012239,
        "meta_mean_motion_dot": 1.99e-06,
        "meta_mean_motion_ddot": 0,
        "tle_line1": "1 39260U 13052A   25344.20033875  .00000199  00000+0  12239-3 0  9995",
        "tle_line2": "2 39260  98.4760 322.0037 0014138 203.5602 156.4926 14.15695025631829"
      },
      "geometry": {
        "type": "Point",
        "coordinates": [
          -39.87650697100249,
          13.707875183257292
        ]
      }
    }
  ]
}